#aV2006  4 23  0  0   .00000000      96 DD+AD WGS84 FIT  NGA
## 1372       .00000000   900.00000000 53848  .0000000000000
+   29     1  2  3  4  5  6  7  8  9 10 11 13 14 15 16 17 18
+         19 20 21 22 23 24 25 26 27 28 29 30  0  0  0  0  0
+          0  0  0  0  0  0  0  0  0  0  0  0  0  0  0  0  0
+          0  0  0  0  0  0  0  0  0  0  0  0  0  0  0  0  0
+          0  0  0  0  0  0  0  0  0  0  0  0  0  0  0  0  0
++         0  0  0  0  0  0  0  0  0  0  0  0  0  0  0  0  0
++         0  0  0  0  0  0  0  0  0  0  0  0  0  0  0  0  0
++         0  0  0  0  0  0  0  0  0  0  0  0  0  0  0  0  0
++         0  0  0  0  0  0  0  0  0  0  0  0  0  0  0  0  0
++         0  0  0  0  0  0  0  0  0  0  0  0  0  0  0  0  0
%c cc cc ccc ccc cccc cccc cccc cccc ccccc ccccc ccccc ccccc
%c cc cc ccc ccc cccc cccc cccc cccc ccccc ccccc ccccc ccccc
%f  0.0000000  0.000000000  0.00000000000  0.000000000000000
%f  0.0000000  0.000000000  0.00000000000  0.000000000000000
%i    0    0    0    0      0      0      0      0         0
%i    0    0    0    0      0      0      0      0         0
/*      NGA, ST. LOUIS,MO.                                  
/*   EPHEMERIS COMPUTED FROM  3 DAYS OF DATA                
/* CCCCCCCCCCCCCCCCCCCCCCCCCCCCCCCCCCCCCCCCCCCCCCCCCCCCCCCCC
/* CCCCCCCCCCCCCCCCCCCCCCCCCCCCCCCCCCCCCCCCCCCCCCCCCCCCCCCCC
*  2006  4 23 18 45   .00000000                                                 
P  1 -15478.349467  -3216.590871 -21156.814741     48.745311                    
V  1  -7103.705806 -26299.244948   9070.214354       .022303                    
P  2  20790.184205  -7642.644266 -14777.677552     -7.324512                    
V  2 -10394.536717  15374.182579 -23185.567752       .023397                    
P  3 -15756.488597   3313.357194  20985.792703     92.932700                    
V  3 -10590.465292 -24985.056171  -3672.125215       .032177                    
P  4  17264.865235   2487.359438 -20157.653816    212.654282                    
V  4 -16477.839877  19432.787120 -11389.011678       .098100                    
P  5   8624.042105 -14339.219753 -20790.070252   -112.314741                    
V  5  25780.006524   4056.386165   8138.600535       .622480                    
P  6  -5495.170823 -25419.634467  -5000.638228    488.794969                    
V  6   5726.705918   4942.688121 -30332.644646       .213001                    
P  7 -16886.385802 -15804.494384  13279.446061    531.109374                    
V  7  -3488.079260 -16313.314386 -24594.215044       .038384                    
P  8  10514.850465  10549.425749  21841.377455    -63.536032                    
V  8 -19572.057670  20096.317494   -673.667498      -.012086                    
P  9  14524.682413 -21823.838044  -3676.711675     17.325377                    
V  9   4887.730843  -1226.880590  31470.647305       .016058                    
P 10  24180.410186  -2219.589549  11028.203611     82.268045                    
V 10  13263.351360   4910.471369 -27547.043336       .005846                    
P 11 -12034.787154  23298.944667  -3356.427898    322.528896                    
V 11  -6455.463229    872.051437  30043.850080       .025488                    
P 13   5328.020989  25782.525744  -3828.902318     56.677981                    
V 13  -3056.166958  -4011.477474 -31906.929031       .027688                    
P 14 -14813.691482 -17727.028578 -13081.378789    -15.384287                    
V 14  -3580.518592 -16348.212996  26030.716266       .007382                    
P 15 -10330.528608 -11174.868403  21598.179500    601.447498                    
V 15  20105.183732 -19255.611868   -733.105939       .062879                    
P 16 -25998.605888  -1549.820179   5568.738792     38.550689                    
V 16  -6247.594687  -3979.424095 -30663.675558       .022873                    
P 17  14942.670368  18562.373147 -11840.458473     85.749210                    
V 17   2573.286753  14937.943205  26602.604934       .040865                    
P 18 -10293.526766 -16093.527190  18672.718029   -232.168443                    
V 18  23034.629487   4390.210685  16271.761074      -.017558                    
P 19  -9810.013829  15549.358372  19258.273712    -14.001319                    
V 19  -7618.650258 -23063.116836  14862.275941       .016294                    
P 20  -7337.438919  13958.705495 -21462.526210    -28.093808                    
V 20 -26456.351033  -5643.382079   5430.860868       .006793                    
P 21  -2562.744497 -17753.161129  19471.087706     23.634985                    
V 21  18364.866911 -16809.108925 -13464.322783       .028374                    
P 22 -21764.109921 -12290.444684   9144.901553     88.495273                    
V 22  11711.305178    264.705592  28700.109418       .036941                    
P 23  -3043.125900  22067.048404 -14435.300774    143.254068                    
V 23  -7730.893837 -16620.558834 -24084.639585      -.010050                    
P 24   7313.452299  13768.370969 -21239.535059       .678842                    
V 24 -19750.192165  19229.121825   5854.373531       .028906                    
P 25 -18421.284859   2861.446401 -18566.190935     12.946920                    
V 25  13134.298326 -20616.997052 -15741.433021       .003861                    
P 26  10745.821273 -11585.597985  20840.055797    -94.924635                    
V 26   8936.906851  25940.384678  10209.613423      -.108213                    
P 27   3084.239397  18304.097639  19474.331811     45.612977                    
V 27 -15615.597923  17728.039497 -14981.084656       .017090                    
P 28  19666.350140  13337.868321  12500.595984     28.875402                    
V 28 -15367.808638  -1358.396363  25886.779200      -.008749                    
P 29  12669.536983  -8083.143097  22112.148134    591.561004                    
V 29   9311.214855  25835.609179   4419.925211       .077865                    
P 30  -3442.817854 -16092.502110 -21145.645396    179.385127                    
V 30  26002.448350   3664.630892  -7000.504465       .435525                    
EOF
